{
  "norad_id": 56115,
  "name": "STARLINK-6101",
  "history": [
    {
      "epoch": "2026-03-28T14:42:06.820416",
      "apogee_km": 486.32978472520244,
      "perigee_km": 484.75525664315865,
      "latitude_deg": -40.067094927487986,
      "longitude_deg": -149.6924217599444,
      "semi_major_axis_km": 6863.679520684181,
      "eccentricity": 0.0001147,
      "inclination_deg": 43.0055,
      "raan_deg": 51.4257,
      "arg_perigee_deg": 254.6991,
      "mean_anomaly_deg": 105.3734,
      "mean_motion_rev_day": 15.26747671
    }
  ]
}